     2.10           N: GPS NAV DATA                         RINEX VERSION / TYPE
EPHEMCHECK 2.10     MCC D.ZALETAEV      09-Feb-18 12:20     PGM / RUN BY / DATE
A new version of accumulating navigation files by IANC      COMMENT
     .8382D-08  -.7451D-08  -.5960D-07   .5960D-07          ION ALPHA
     .8806D+05  -.3277D+05  -.1966D+06   .1966D+06          ION BETA
    -.186264514923D-08 -.266453525910D-14    61440     1988 DELTA-UTC: A0,A1,T,W
    18                                                      LEAP SECONDS
                                                            END OF HEADER
11 18 02 09 09 59 44.0-7.359227165580D-04-6.821210263297D-13 0.000000000000D+00
    4.000000000000D+00-5.681250000000D+01 5.660235835592D-09-2.747080453167D+00
   -2.957880496979D-06 1.673411147203D-02 7.214024662971D-06 5.153760850906D+03
    4.679840000000D+05 1.676380634308D-07-1.165240522682D+00 1.322478055954D-07
    9.039091409068D-01 2.036562500000D+02 1.739292393104D+00-8.335347523314D-09
    1.417916201119D-10 1.000000000000D+00 1.987000000000D+03 0.000000000000D+00
    2.000000000000D+00 0.000000000000D+00-1.210719347000D-08 4.000000000000D+00
    4.607100000000D+05 4.000000000000D+00
12 18  2  9 10  0  0.0 3.512208350003D-04-1.932676241267D-12 0.000000000000D+00
    6.500000000000D+01 4.787500000000D+01 3.889447725395D-09 2.982243726879D+00
    2.427026629448D-06 6.923524313606D-03 4.803761839867D-06 5.153649583817D+03
    4.680000000000D+05-1.676380634308D-08-2.783573064614D+00-5.401670932770D-08
    9.877638817019D-01 3.004062500000D+02 9.187891989838D-01-7.852827101769D-09
    1.350056235261D-10 1.000000000000D+00 1.987000000000D+03 0.000000000000D+00
    2.000000000000D+00 0.000000000000D+00-1.257285475731D-08 6.500000000000D+01
    4.608000000000D+05 4.000000000000D+00
13 18 02 09 10 00  0.0-9.557651355863D-05-1.136868377216D-13 0.000000000000D+00
    7.700000000000D+01 2.843750000000D+00 4.441970791191D-09-1.304176279651D+00
    9.685754776001D-08 3.688270924613D-03 8.495524525642D-06 5.153657077789D+03
    4.680000000000D+05-3.911554813385D-08 1.461682500120D+00 3.911554813385D-08
    9.683825914676D-01 2.173125000000D+02 1.625319214852D+00-7.949259916984D-09
   -3.860875230632D-10 1.000000000000D+00 1.987000000000D+03 0.000000000000D+00
    2.000000000000D+00 0.000000000000D+00-1.117587089539D-08 7.700000000000D+01
    4.607400000000D+05 0.000000000000D+00
14 18 02 09 10 00  0.0-9.369151666760D-05-5.684341886081D-13 0.000000000000D+00
    9.400000000000D+01-2.687500000000D+00 4.709124645785D-09-1.876047183524D-01
   -7.636845111847D-08 9.327902575023D-03 7.962808012962D-06 5.153733198166D+03
    4.680000000000D+05-8.009374141693D-08 1.420486229616D+00 1.154839992523D-07
    9.609363501475D-01 2.279062500000D+02-1.956360264018D+00-8.239986470926D-09
   -3.150131266949D-10 1.000000000000D+00 1.987000000000D+03 0.000000000000D+00
    2.000000000000D+00 0.000000000000D+00-9.778887033463D-09 9.400000000000D+01
    4.607400000000D+05 0.000000000000D+00
15 18 02 09 10 00  0.0-3.570858389139D-04 1.136868377216D-13 0.000000000000D+00
    5.900000000000D+01-4.687500000000D+00 5.488443033386D-09-7.081663365533D-01
   -2.216547727585D-07 1.016677520238D-02 7.376074790955D-06 5.153682619095D+03
    4.680000000000D+05 1.434236764908D-07 1.263458898306D+00 1.396983861923D-07
    9.282000807676D-01 2.186250000000D+02 6.660180662572D-01-8.564999376404D-09
   -3.396569969727D-10 1.000000000000D+00 1.987000000000D+03 0.000000000000D+00
    2.000000000000D+00 0.000000000000D+00-1.071020960808D-08 5.900000000000D+01
    4.607400000000D+05 0.000000000000D+00
16 18 02 09 10 00  0.0 3.258977085352D-05-7.958078640513D-13 0.000000000000D+00
    5.400000000000D+01 4.406250000000D+01 3.895519462560D-09 1.069694869131D+00
    2.412125468254D-06 9.845042834058D-03 4.954636096954D-06 5.153585138321D+03
    4.680000000000D+05-4.097819328308D-08-2.764689596625D+00 1.024454832077D-07
    9.882000112284D-01 2.977500000000D+02 4.651061491266D-01-8.007833507406D-09
   -1.821504405641D-11 1.000000000000D+00 1.987000000000D+03 0.000000000000D+00
    2.000000000000D+00 0.000000000000D+00-1.071020960808D-08 5.400000000000D+01
    4.607400000000D+05 0.000000000000D+00
17 18 02 09 10 00  0.0-1.245774328709D-04 2.955857780762D-12 0.000000000000D+00
    8.000000000000D+01-5.700000000000D+01 4.164101952142D-09 5.507041586958D-02
   -3.114342689514D-06 1.236178760882D-02 6.383284926414D-06 5.153760965347D+03
    4.680000000000D+05-1.713633537292D-07-1.748979292419D+00 8.754432201385D-08
    9.817780217611D-01 2.694687500000D+02-1.793874536658D+00-8.200341738984D-09
   -6.250260031759D-11 1.000000000000D+00 1.987000000000D+03 0.000000000000D+00
    2.000000000000D+00 0.000000000000D+00-1.117587089539D-08 8.000000000000D+01
    4.607400000000D+05 0.000000000000D+00
19 18 02 09 10 00  0.0-4.582502879202D-04 2.501110429876D-12 0.000000000000D+00
    5.000000000000D+00-6.928125000000D+01 4.136957887368D-09 3.075035514681D+00
   -3.665685653687D-06 9.718018700369D-03 6.206333637238D-06 5.153703605652D+03
    4.680000000000D+05 8.381903171539D-08-1.701729658545D+00-1.396983861923D-07
    9.792081018679D-01 2.685312500000D+02 1.121865493172D+00-7.844612071040D-09
   -6.107397226840D-11 1.000000000000D+00 1.987000000000D+03 0.000000000000D+00
    2.000000000000D+00 0.000000000000D+00-1.536682248116D-08 5.000000000000D+00
    4.607400000000D+05 0.000000000000D+00
20 18 02 09 10 00  0.0 5.004573613405D-04 9.094947017729D-13 0.000000000000D+00
    8.200000000000D+01-5.218750000000D+00 5.485942811134D-09-1.015140124569D+00
   -1.825392246246D-07 4.480025148951D-03 7.508322596550D-06 5.153779211044D+03
    4.680000000000D+05-8.940696716309D-08 1.912331867498D-01-1.676380634308D-08
    9.282857433987D-01 2.174062500000D+02 1.785730818422D+00-8.511069182759D-09
    2.160804313256D-10 1.000000000000D+00 1.987000000000D+03 0.000000000000D+00
    2.000000000000D+00 0.000000000000D+00-8.381903171539D-09 8.200000000000D+01
    4.607400000000D+05 0.000000000000D+00
21 18 02 09 10 00  0.0-4.324135370553D-04 4.320099833421D-12 0.000000000000D+00
    7.700000000000D+01-6.581250000000D+01 4.788413665580D-09 2.514125719085D+00
   -3.421679139137D-06 2.440952928737D-02 8.130446076393D-06 5.153770608902D+03
    4.680000000000D+05 3.091990947723D-07-7.965809447252D-01-1.881271600723D-07
    9.426817116428D-01 2.102500000000D+02-1.596935622687D+00-7.736036700123D-09
    6.035965477436D-11 1.000000000000D+00 1.987000000000D+03 0.000000000000D+00
    2.000000000000D+00 0.000000000000D+00-1.024454832077D-08 7.700000000000D+01
    4.607400000000D+05 4.000000000000D+00
22 18 02 09 10 00  0.0-2.855681814253D-04-1.296029950026D-11 0.000000000000D+00
    6.300000000000D+01-2.812500000000D-01 5.643806311184D-09-5.113248836481D-01
    5.215406417847D-08 7.265383726917D-03 6.914138793945D-06 5.153590959549D+03
    4.680000000000D+05-8.381903171539D-08 2.415613561715D-01-1.490116119385D-08
    9.249821730146D-01 2.263437500000D+02-1.616079607128D+00-8.697147890757D-09
    1.910793884230D-10 1.000000000000D+00 1.987000000000D+03 0.000000000000D+00
    2.000000000000D+00 0.000000000000D+00-1.769512891769D-08 6.300000000000D+01
    4.607400000000D+05 0.000000000000D+00
23 18 02 09 10 00  0.0-2.189888618886D-04 1.136868377216D-13 0.000000000000D+00
    9.500000000000D+01 1.500000000000D+00 4.983064627595D-09-1.199084716977D+00
    1.676380634308D-08 1.196599181276D-02 7.543712854385D-06 5.153595125198D+03
    4.680000000000D+05 3.147870302200D-07 1.330921271905D+00 8.381903171539D-08
    9.434412323771D-01 2.217500000000D+02-2.397698721044D+00-8.162840181569D-09
   -3.064413445220D-10 1.000000000000D+00 1.987000000000D+03 0.000000000000D+00
    2.000000000000D+00 0.000000000000D+00-2.002343535423D-08 9.500000000000D+01
    4.607400000000D+05 0.000000000000D+00
24 18 02 09 10 00  0.0-4.584062844515D-05-4.547473508865D-13 0.000000000000D+00
    7.100000000000D+01 5.496875000000D+01 4.674837406071D-09-1.784267958860D+00
    2.820044755936D-06 6.796912988648D-03 9.205192327499D-06 5.153662723541D+03
    4.680000000000D+05 3.725290298462D-09 2.352031961606D+00-1.247972249985D-07
    9.425682828266D-01 1.922187500000D+02 5.210880448830D-01-8.047478239348D-09
   -8.750364322019D-11 1.000000000000D+00 1.987000000000D+03 0.000000000000D+00
    2.000000000000D+00 0.000000000000D+00 2.793967723846D-09 7.100000000000D+01
    4.607400000000D+05 4.000000000000D+00
25 18 02 09 10 00  0.0-5.359100177884D-04-6.139089236967D-12 0.000000000000D+00
    6.500000000000D+01 5.353125000000D+01 4.144815601848D-09 2.535944637530D+00
    2.760440111160D-06 7.149034878239D-03 5.029141902924D-06 5.153690134048D+03
    4.680000000000D+05-4.656612873077D-08-2.841979881675D+00-8.009374141693D-08
    9.754920763605D-01 2.902187500000D+02 8.088997477728D-01-7.989618744375D-09
    1.492919260437D-10 1.000000000000D+00 1.987000000000D+03 0.000000000000D+00
    2.000000000000D+00 0.000000000000D+00 5.587935447693D-09 6.500000000000D+01
    4.607400000000D+05 4.000000000000D+00
26 18 02 09 10 00  0.0-2.568834461272D-04 1.364242052659D-11 0.000000000000D+00
    6.200000000000D+01 5.162500000000D+01 4.616263815649D-09 2.036797167360D+00
    2.678483724594D-06 2.663573133759D-03 4.762783646584D-06 5.153611455917D+03
    4.680000000000D+05 4.842877388000D-08-2.861990343717D+00 4.842877388000D-08
    9.570928942350D-01 2.856250000000D+02 9.386034120281D-03-8.282487584665D-09
    7.286017622565D-11 1.000000000000D+00 1.987000000000D+03 0.000000000000D+00
    2.000000000000D+00 0.000000000000D+00 7.450580596924D-09 6.200000000000D+01
    4.607400000000D+05 0.000000000000D+00
